STARLINK-36545          
1 67505U 26012N   26046.91668981 -.01887549  00000+0 -52602-1 0  9999
2 67505  43.0005  77.1937 0001275 255.1916 112.2395 15.39415590  5577
STARLINK-36553          
1 67506U 26012P   26046.91668981 -.01853922  00000+0 -53691-1 0  9997
2 67506  43.0002  77.1229 0001672 266.1857 129.7029 15.38187062  5572
STARLINK-36521          
1 67507U 26012Q   26046.91668981 -.01901927  00000+0 -54323-1 0  9990
2 67507  42.9997  77.0993 0001697 269.6818 135.5113 15.38695239  5572
STARLINK-36526          
1 67508U 26012R   26046.91668981 -.01879159  00000+0 -52279-1 0  9990
2 67508  42.9999  77.0686 0001687 271.8868 146.0624 15.39447974  5579
STARLINK-36541          
1 67509U 26012S   26045.42889574  .00071950  00000+0  12184-2 0  9991
2 67509  42.9986  86.7186 0000543 353.0224   7.0629 15.50639519  4196
STARLINK-36549          
1 67510U 26012T   26046.91668981 -.01833250  00000+0 -55393-1 0  9995
2 67510  42.9999  77.0095 0001570 276.4609 161.7504 15.36855252  5515
STARLINK-36540          
1 67511U 26012U   26045.49165125  .00095249  00000+0  16087-2 0  9993
2 67511  43.0023  86.3251 0003376 283.9420  76.1065 15.50592337  4207
STARLINK-36538          
1 67512U 26012V   26046.91668981 -.02192571  00000+0 -80560-1 0  9996
2 67512  43.0014  77.6081 0001465 265.0675 292.3152 15.30804261  5572
STARLINK-36531          
1 67513U 26012W   26046.91668981 -.01812239  00000+0 -63827-1 0  9993
2 67513  43.0004  77.4803 0001001 283.2029 326.1575 15.32049467  5513
STARLINK-36530          
1 67514U 26012X   26046.91668981 -.01864555  00000+0 -63522-1 0  9994
2 67514  43.0003  77.4873 0000882 289.5860 317.2668 15.33199382  5515
STARLINK-36543          
1 67515U 26012Y   26046.91668981 -.01863306  00000+0 -61117-1 0  9996
2 67515  43.0006  77.4998 0000920 289.5233 312.7127 15.34381767  5515
STARLINK-36537          
1 67516U 26012Z   26046.91668981 -.01840688  00000+0 -60129-1 0  9997
2 67516  42.9997  77.3263 0001136 257.3207  54.2465 15.34464034  5513
