CCSDS_OMM_VERS = 2.0
CREATION_DATE  = 
ORIGINATOR     = 

OBJECT_NAME    = STARLINK-36545
OBJECT_ID      = 2026-012N
CENTER_NAME    = EARTH
REF_FRAME      = TEME
TIME_SYSTEM    = UTC
MEAN_ELEMENT_THEORY = SGP/SGP4

EPOCH          = 2026-02-15T22:00:01.999584
MEAN_MOTION    = 15.39415590
ECCENTRICITY   = .00012757
INCLINATION    = 43.0005
RA_OF_ASC_NODE = 77.1937
ARG_OF_PERICENTER = 255.1916
MEAN_ANOMALY   = 112.2395

EPHEMERIS_TYPE = 0
CLASSIFICATION_TYPE = U
NORAD_CAT_ID   = 67505
ELEMENT_SET_NO = 999
REV_AT_EPOCH   = 557
BSTAR          = -.52601637E-1
MEAN_MOTION_DOT = -.1887549E-1
MEAN_MOTION_DDOT = 0

CCSDS_OMM_VERS = 2.0
CREATION_DATE  = 
ORIGINATOR     = 

OBJECT_NAME    = STARLINK-36553
OBJECT_ID      = 2026-012P
CENTER_NAME    = EARTH
REF_FRAME      = TEME
TIME_SYSTEM    = UTC
MEAN_ELEMENT_THEORY = SGP/SGP4

EPOCH          = 2026-02-15T22:00:01.999584
MEAN_MOTION    = 15.38187062
ECCENTRICITY   = .00016726
INCLINATION    = 43.0002
RA_OF_ASC_NODE = 77.1229
ARG_OF_PERICENTER = 266.1857
MEAN_ANOMALY   = 129.7029

EPHEMERIS_TYPE = 0
CLASSIFICATION_TYPE = U
NORAD_CAT_ID   = 67506
ELEMENT_SET_NO = 999
REV_AT_EPOCH   = 557
BSTAR          = -.53690646E-1
MEAN_MOTION_DOT = -.1853922E-1
MEAN_MOTION_DDOT = 0

CCSDS_OMM_VERS = 2.0
CREATION_DATE  = 
ORIGINATOR     = 

OBJECT_NAME    = STARLINK-36521
OBJECT_ID      = 2026-012Q
CENTER_NAME    = EARTH
REF_FRAME      = TEME
TIME_SYSTEM    = UTC
MEAN_ELEMENT_THEORY = SGP/SGP4

EPOCH          = 2026-02-15T22:00:01.999584
MEAN_MOTION    = 15.38695239
ECCENTRICITY   = .00016971
INCLINATION    = 42.9997
RA_OF_ASC_NODE = 77.0993
ARG_OF_PERICENTER = 269.6818
MEAN_ANOMALY   = 135.5113

EPHEMERIS_TYPE = 0
CLASSIFICATION_TYPE = U
NORAD_CAT_ID   = 67507
ELEMENT_SET_NO = 999
REV_AT_EPOCH   = 557
BSTAR          = -.54323065E-1
MEAN_MOTION_DOT = -.1901927E-1
MEAN_MOTION_DDOT = 0

CCSDS_OMM_VERS = 2.0
CREATION_DATE  = 
ORIGINATOR     = 

OBJECT_NAME    = STARLINK-36526
OBJECT_ID      = 2026-012R
CENTER_NAME    = EARTH
REF_FRAME      = TEME
TIME_SYSTEM    = UTC
MEAN_ELEMENT_THEORY = SGP/SGP4

EPOCH          = 2026-02-15T22:00:01.999584
MEAN_MOTION    = 15.39447974
ECCENTRICITY   = .00016877
INCLINATION    = 42.9999
RA_OF_ASC_NODE = 77.0686
ARG_OF_PERICENTER = 271.8868
MEAN_ANOMALY   = 146.0624

EPHEMERIS_TYPE = 0
CLASSIFICATION_TYPE = U
NORAD_CAT_ID   = 67508
ELEMENT_SET_NO = 999
REV_AT_EPOCH   = 557
BSTAR          = -.52278844E-1
MEAN_MOTION_DOT = -.1879159E-1
MEAN_MOTION_DDOT = 0

CCSDS_OMM_VERS = 2.0
CREATION_DATE  = 
ORIGINATOR     = 

OBJECT_NAME    = STARLINK-36541
OBJECT_ID      = 2026-012S
CENTER_NAME    = EARTH
REF_FRAME      = TEME
TIME_SYSTEM    = UTC
MEAN_ELEMENT_THEORY = SGP/SGP4

EPOCH          = 2026-02-14T10:17:36.591936
MEAN_MOTION    = 15.50639519
ECCENTRICITY   = .00005439
INCLINATION    = 42.9986
RA_OF_ASC_NODE = 86.7186
ARG_OF_PERICENTER = 353.0224
MEAN_ANOMALY   = 7.0629

EPHEMERIS_TYPE = 0
CLASSIFICATION_TYPE = U
NORAD_CAT_ID   = 67509
ELEMENT_SET_NO = 999
REV_AT_EPOCH   = 419
BSTAR          = .12183877E-2
MEAN_MOTION_DOT = .7195E-3
MEAN_MOTION_DDOT = 0

CCSDS_OMM_VERS = 2.0
CREATION_DATE  = 
ORIGINATOR     = 

OBJECT_NAME    = STARLINK-36549
OBJECT_ID      = 2026-012T
CENTER_NAME    = EARTH
REF_FRAME      = TEME
TIME_SYSTEM    = UTC
MEAN_ELEMENT_THEORY = SGP/SGP4

EPOCH          = 2026-02-15T22:00:01.999584
MEAN_MOTION    = 15.36855252
ECCENTRICITY   = .00015706
INCLINATION    = 42.9999
RA_OF_ASC_NODE = 77.0095
ARG_OF_PERICENTER = 276.4609
MEAN_ANOMALY   = 161.7504

EPHEMERIS_TYPE = 0
CLASSIFICATION_TYPE = U
NORAD_CAT_ID   = 67510
ELEMENT_SET_NO = 999
REV_AT_EPOCH   = 551
BSTAR          = -.55393001E-1
MEAN_MOTION_DOT = -.183325E-1
MEAN_MOTION_DDOT = 0

CCSDS_OMM_VERS = 2.0
CREATION_DATE  = 
ORIGINATOR     = 

OBJECT_NAME    = STARLINK-36540
OBJECT_ID      = 2026-012U
CENTER_NAME    = EARTH
REF_FRAME      = TEME
TIME_SYSTEM    = UTC
MEAN_ELEMENT_THEORY = SGP/SGP4

EPOCH          = 2026-02-14T11:47:58.668000
MEAN_MOTION    = 15.50592337
ECCENTRICITY   = .00033767
INCLINATION    = 43.0023
RA_OF_ASC_NODE = 86.3251
ARG_OF_PERICENTER = 283.9420
MEAN_ANOMALY   = 76.1065

EPHEMERIS_TYPE = 0
CLASSIFICATION_TYPE = U
NORAD_CAT_ID   = 67511
ELEMENT_SET_NO = 999
REV_AT_EPOCH   = 420
BSTAR          = .1608741E-2
MEAN_MOTION_DOT = .95249E-3
MEAN_MOTION_DDOT = 0

CCSDS_OMM_VERS = 2.0
CREATION_DATE  = 
ORIGINATOR     = 

OBJECT_NAME    = STARLINK-36538
OBJECT_ID      = 2026-012V
CENTER_NAME    = EARTH
REF_FRAME      = TEME
TIME_SYSTEM    = UTC
MEAN_ELEMENT_THEORY = SGP/SGP4

EPOCH          = 2026-02-15T22:00:01.999584
MEAN_MOTION    = 15.30804261
ECCENTRICITY   = .00014655
INCLINATION    = 43.0014
RA_OF_ASC_NODE = 77.6081
ARG_OF_PERICENTER = 265.0675
MEAN_ANOMALY   = 292.3152

EPHEMERIS_TYPE = 0
CLASSIFICATION_TYPE = U
NORAD_CAT_ID   = 67512
ELEMENT_SET_NO = 999
REV_AT_EPOCH   = 557
BSTAR          = -.80559504E-1
MEAN_MOTION_DOT = -.2192571E-1
MEAN_MOTION_DDOT = 0

CCSDS_OMM_VERS = 2.0
CREATION_DATE  = 
ORIGINATOR     = 

OBJECT_NAME    = STARLINK-36531
OBJECT_ID      = 2026-012W
CENTER_NAME    = EARTH
REF_FRAME      = TEME
TIME_SYSTEM    = UTC
MEAN_ELEMENT_THEORY = SGP/SGP4

EPOCH          = 2026-02-15T22:00:01.999584
MEAN_MOTION    = 15.32049467
ECCENTRICITY   = .00010016
INCLINATION    = 43.0004
RA_OF_ASC_NODE = 77.4803
ARG_OF_PERICENTER = 283.2029
MEAN_ANOMALY   = 326.1575

EPHEMERIS_TYPE = 0
CLASSIFICATION_TYPE = U
NORAD_CAT_ID   = 67513
ELEMENT_SET_NO = 999
REV_AT_EPOCH   = 551
BSTAR          = -.63827394E-1
MEAN_MOTION_DOT = -.1812239E-1
MEAN_MOTION_DDOT = 0

CCSDS_OMM_VERS = 2.0
CREATION_DATE  = 
ORIGINATOR     = 

OBJECT_NAME    = STARLINK-36530
OBJECT_ID      = 2026-012X
CENTER_NAME    = EARTH
REF_FRAME      = TEME
TIME_SYSTEM    = UTC
MEAN_ELEMENT_THEORY = SGP/SGP4

EPOCH          = 2026-02-15T22:00:01.999584
MEAN_MOTION    = 15.33199382
ECCENTRICITY   = .00008826
INCLINATION    = 43.0003
RA_OF_ASC_NODE = 77.4873
ARG_OF_PERICENTER = 289.5860
MEAN_ANOMALY   = 317.2668

EPHEMERIS_TYPE = 0
CLASSIFICATION_TYPE = U
NORAD_CAT_ID   = 67514
ELEMENT_SET_NO = 999
REV_AT_EPOCH   = 551
BSTAR          = -.63521567E-1
MEAN_MOTION_DOT = -.1864555E-1
MEAN_MOTION_DDOT = 0

CCSDS_OMM_VERS = 2.0
CREATION_DATE  = 
ORIGINATOR     = 

OBJECT_NAME    = STARLINK-36543
OBJECT_ID      = 2026-012Y
CENTER_NAME    = EARTH
REF_FRAME      = TEME
TIME_SYSTEM    = UTC
MEAN_ELEMENT_THEORY = SGP/SGP4

EPOCH          = 2026-02-15T22:00:01.999584
MEAN_MOTION    = 15.34381767
ECCENTRICITY   = .00009206
INCLINATION    = 43.0006
RA_OF_ASC_NODE = 77.4998
ARG_OF_PERICENTER = 289.5233
MEAN_ANOMALY   = 312.7127

EPHEMERIS_TYPE = 0
CLASSIFICATION_TYPE = U
NORAD_CAT_ID   = 67515
ELEMENT_SET_NO = 999
REV_AT_EPOCH   = 551
BSTAR          = -.61117239E-1
MEAN_MOTION_DOT = -.1863306E-1
MEAN_MOTION_DDOT = 0

CCSDS_OMM_VERS = 2.0
CREATION_DATE  = 
ORIGINATOR     = 

OBJECT_NAME    = STARLINK-36537
OBJECT_ID      = 2026-012Z
CENTER_NAME    = EARTH
REF_FRAME      = TEME
TIME_SYSTEM    = UTC
MEAN_ELEMENT_THEORY = SGP/SGP4

EPOCH          = 2026-02-15T22:00:01.999584
MEAN_MOTION    = 15.34464034
ECCENTRICITY   = .00011365
INCLINATION    = 42.9997
RA_OF_ASC_NODE = 77.3263
ARG_OF_PERICENTER = 257.3207
MEAN_ANOMALY   = 54.2465

EPHEMERIS_TYPE = 0
CLASSIFICATION_TYPE = U
NORAD_CAT_ID   = 67516
ELEMENT_SET_NO = 999
REV_AT_EPOCH   = 551
BSTAR          = -.60129189E-1
MEAN_MOTION_DOT = -.1840688E-1
MEAN_MOTION_DDOT = 0

